{"type": "FeatureCollection", "features": [ {"type": "Feature", "properties": {"norad_id": 66417, "name": "HULIANWANG DIGUI 13F", "group": "last-30-days", "lat": -35.73463559332991, "lon": 147.73545910609653, "alt_km": 820.4215014667507, "timestamp": "2025-12-05T22:40:47.340756+00:00", "meta": {"OBJECT_NAME": "HULIANWANG DIGUI 13F", "OBJECT_ID": "2025-258F", "EPOCH": "2025-12-05T01:23:10.533984", "MEAN_MOTION": 14.23479417, "ECCENTRICITY": 0.00124281, "INCLINATION": 49.9996, "RA_OF_ASC_NODE": 294.3044, "ARG_OF_PERICENTER": 335.9417, "MEAN_ANOMALY": 24.0914, "EPHEMERIS_TYPE": 0, "CLASSIFICATION_TYPE": "U", "NORAD_CAT_ID": 66417, "ELEMENT_SET_NO": 999, "REV_AT_EPOCH": 356, "BSTAR": 0.00015744342, "MEAN_MOTION_DOT": 2.01e-06, "MEAN_MOTION_DDOT": 0}, "tle": {"line1": "1 66417U 25258F   25339.05776081  .00000201  00000+0  15744-3 0  9998", "line2": "2 66417  49.9996 294.3044 0012428 335.9417  24.0914 14.23479417  3563"}}, "geometry": {"type": "Point", "coordinates": [147.73545910609653, -35.73463559332991]}}, {"type": "Feature", "properties": {"norad_id": 66418, "name": "HULIANWANG DIGUI 13G", "group": "last-30-days", "lat": -46.48760402620311, "lon": 172.70316190885214, "alt_km": 816.863293711297, "timestamp": "2025-12-05T22:40:47.340765+00:00", "meta": {"OBJECT_NAME": "HULIANWANG DIGUI 13G", "OBJECT_ID": "2025-258G", "EPOCH": "2025-12-05T02:58:12.585792", "MEAN_MOTION": 14.23490924, "ECCENTRICITY": 0.00124572, "INCLINATION": 50.0018, "RA_OF_ASC_NODE": 293.9878, "ARG_OF_PERICENTER": 331.6839, "MEAN_ANOMALY": 28.3395, "EPHEMERIS_TYPE": 0, "CLASSIFICATION_TYPE": "U", "NORAD_CAT_ID": 66418, "ELEMENT_SET_NO": 999, "REV_AT_EPOCH": 357, "BSTAR": 0.00014733867, "MEAN_MOTION_DOT": 1.78e-06, "MEAN_MOTION_DDOT": 0}, "tle": {"line1": "1 66418U 25258G   25339.12375678  .00000178  00000+0  14734-3 0  9995", "line2": "2 66418  50.0018 293.9878 0012457 331.6839  28.3395 14.23490924  3572"}}, "geometry": {"type": "Point", "coordinates": [172.70316190885214, -46.48760402620311]}}, {"type": "Feature", "properties": {"norad_id": 66419, "name": "HULIANWANG DIGUI 13H", "group": "last-30-days", "lat": -48.743634042769884, "lon": -176.31231587392335, "alt_km": 815.9615177129781, "timestamp": "2025-12-05T22:40:47.340778+00:00", "meta": {"OBJECT_NAME": "HULIANWANG DIGUI 13H", "OBJECT_ID": "2025-258H", "EPOCH": "2025-12-04T16:49:30.563616", "MEAN_MOTION": 14.23507714, "ECCENTRICITY": 0.00120837, "INCLINATION": 50.0006, "RA_OF_ASC_NODE": 295.75, "ARG_OF_PERICENTER": 331.5709, "MEAN_ANOMALY": 28.4543, "EPHEMERIS_TYPE": 0, "CLASSIFICATION_TYPE": "U", "NORAD_CAT_ID": 66419, "ELEMENT_SET_NO": 999, "REV_AT_EPOCH": 351, "BSTAR": 0.0001454091, "MEAN_MOTION_DOT": 1.74e-06, "MEAN_MOTION_DDOT": 0}, "tle": {"line1": "1 66419U 25258H   25338.70104819  .00000174  00000+0  14541-3 0  9998", "line2": "2 66419  50.0006 295.7500 0012083 331.5709  28.4543 14.23507714  3518"}}, "geometry": {"type": "Point", "coordinates": [-176.31231587392335, -48.743634042769884]}}, {"type": "Feature", "properties": {"norad_id": 66420, "name": "HULIANWANG DIGUI 13J", "group": "last-30-days", "lat": -49.688568270764506, "lon": -167.76042927584743, "alt_km": 816.3981058814761, "timestamp": "2025-12-05T22:40:47.340794+00:00", "meta": {"OBJECT_NAME": "HULIANWANG DIGUI 13J", "OBJECT_ID": "2025-258J", "EPOCH": "2025-12-05T06:16:37.291872", "MEAN_MOTION": 14.23476087, "ECCENTRICITY": 0.00114176, "INCLINATION": 50.0022, "RA_OF_ASC_NODE": 293.3918, "ARG_OF_PERICENTER": 340.5413, "MEAN_ANOMALY": 19.5063, "EPHEMERIS_TYPE": 0, "CLASSIFICATION_TYPE": "U", "NORAD_CAT_ID": 66420, "ELEMENT_SET_NO": 999, "REV_AT_EPOCH": 358, "BSTAR": 0.00013184932, "MEAN_MOTION_DOT": 1.42e-06, "MEAN_MOTION_DDOT": 0}, "tle": {"line1": "1 66420U 25258J   25339.26154273  .00000142  00000+0  13185-3 0  9999", "line2": "2 66420  50.0022 293.3918 0011417 340.5413  19.5063 14.23476087  3580"}}, "geometry": {"type": "Point", "coordinates": [-167.76042927584743, -49.688568270764506]}}, {"type": "Feature", "properties": {"norad_id": 66421, "name": "CZ-12 R/B", "group": "last-30-days", "lat": 48.1339780515725, "lon": -3.011014458935254, "alt_km": 783.2741019319692, "timestamp": "2025-12-05T22:40:47.340806+00:00", "meta": {"OBJECT_NAME": "CZ-12 R/B", "OBJECT_ID": "2025-258K", "EPOCH": "2025-12-05T07:21:25.335936", "MEAN_MOTION": 14.42317618, "ECCENTRICITY": 0.00646228, "INCLINATION": 49.9965, "RA_OF_ASC_NODE": 290.2012, "ARG_OF_PERICENTER": 222.6836, "MEAN_ANOMALY": 136.9054, "EPHEMERIS_TYPE": 0, "CLASSIFICATION_TYPE": "U", "NORAD_CAT_ID": 66421, "ELEMENT_SET_NO": 999, "REV_AT_EPOCH": 364, "BSTAR": 4.0172725e-05, "MEAN_MOTION_DOT": -3.4e-07, "MEAN_MOTION_DDOT": 0}, "tle": {"line1": "1 66421U 25258K   25339.30654324 -.00000034  00000+0  40173-4 0  9996", "line2": "2 66421  49.9965 290.2012 0064622 222.6836 136.9054 14.42317618  3646"}}, "geometry": {"type": "Point", "coordinates": [-3.011014458935254, 48.1339780515725]}}, {"type": "Feature", "properties": {"norad_id": 66422, "name": "STARLINK-35617", "group": "last-30-days", "lat": 7.93330588329037, "lon": 95.8580281693264, "alt_km": 442.08790225969915, "timestamp": "2025-12-05T22:40:47.340816+00:00", "meta": {"OBJECT_NAME": "STARLINK-35617", "OBJECT_ID": "2025-259A", "EPOCH": "2025-12-05T06:00:02.000160", "MEAN_MOTION": 15.40607418, "ECCENTRICITY": 0.00016072, "INCLINATION": 43.0007, "RA_OF_ASC_NODE": 91.2633, "ARG_OF_PERICENTER": 303.1497, "MEAN_ANOMALY": 169.404, "EPHEMERIS_TYPE": 0, "CLASSIFICATION_TYPE": "U", "NORAD_CAT_ID": 66422, "ELEMENT_SET_NO": 999, "REV_AT_EPOCH": 507, "BSTAR": 0.0025317442, "MEAN_MOTION_DOT": 0.00106615, "MEAN_MOTION_DDOT": 0}, "tle": {"line1": "1 66422U 25259A   25339.25002315  .00106615  00000+0  25317-2 0  9991", "line2": "2 66422  43.0007  91.2633 0001607 303.1497 169.4040 15.40607418  5073"}}, "geometry": {"type": "Point", "coordinates": [95.8580281693264, 7.93330588329037]}}, {"type": "Feature", "properties": {"norad_id": 66423, "name": "STARLINK-35618", "group": "last-30-days", "lat": 16.18304473892805, "lon": 105.37172115174104, "alt_km": 442.1464957943226, "timestamp": "2025-12-05T22:40:47.340829+00:00", "meta": {"OBJECT_NAME": "STARLINK-35618", "OBJECT_ID": "2025-259B", "EPOCH": "2025-12-05T06:00:02.000160", "MEAN_MOTION": 15.40734185, "ECCENTRICITY": 0.00019247, "INCLINATION": 43.0005, "RA_OF_ASC_NODE": 91.2322, "ARG_OF_PERICENTER": 275.739, "MEAN_ANOMALY": 209.3054, "EPHEMERIS_TYPE": 0, "CLASSIFICATION_TYPE": "U", "NORAD_CAT_ID": 66423, "ELEMENT_SET_NO": 999, "REV_AT_EPOCH": 507, "BSTAR": -0.0025714903, "MEAN_MOTION_DOT": -0.00106363, "MEAN_MOTION_DDOT": 0}, "tle": {"line1": "1 66423U 25259B   25339.25002315 -.00106363  00000+0 -25715-2 0  9996", "line2": "2 66423  43.0005  91.2322 0001924 275.7390 209.3054 15.40734185  5076"}}, "geometry": {"type": "Point", "coordinates": [105.37172115174104, 16.18304473892805]}}, {"type": "Feature", "properties": {"norad_id": 66424, "name": "STARLINK-35588", "group": "last-30-days", "lat": 23.56334519145131, "lon": 115.10525763610838, "alt_km": 445.16488477266284, "timestamp": "2025-12-05T22:40:47.340839+00:00", "meta": {"OBJECT_NAME": "STARLINK-35588", "OBJECT_ID": "2025-259C", "EPOCH": "2025-12-05T06:00:02.000160", "MEAN_MOTION": 15.42474845, "ECCENTRICITY": 0.00016524, "INCLINATION": 43.0006, "RA_OF_ASC_NODE": 91.2062, "ARG_OF_PERICENTER": 281.8422, "MEAN_ANOMALY": 214.5001, "EPHEMERIS_TYPE": 0, "CLASSIFICATION_TYPE": "U", "NORAD_CAT_ID": 66424, "ELEMENT_SET_NO": 999, "REV_AT_EPOCH": 507, "BSTAR": -0.054987073, "MEAN_MOTION_DOT": -0.02151652, "MEAN_MOTION_DDOT": 0}, "tle": {"line1": "1 66424U 25259C   25339.25002315 -.02151652  00000+0 -54987-1 0  9992", "line2": "2 66424  43.0006  91.2062 0001652 281.8422 214.5001 15.42474845  5077"}}, "geometry": {"type": "Point", "coordinates": [115.10525763610838, 23.56334519145131]}}, {"type": "Feature", "properties": {"norad_id": 66425, "name": "STARLINK-35555", "group": "last-30-days", "lat": 31.18439480555266, "lon": 127.66692484619202, "alt_km": 439.405624348321, "timestamp": "2025-12-05T22:40:47.340850+00:00", "meta": {"OBJECT_NAME": "STARLINK-35555", "OBJECT_ID": "2025-259D", "EPOCH": "2025-12-05T06:00:02.000160", "MEAN_MOTION": 15.43653722, "ECCENTRICITY": 0.00012822, "INCLINATION": 43.0007, "RA_OF_ASC_NODE": 91.1783, "ARG_OF_PERICENTER": 272.0072, "MEAN_ANOMALY": 234.2962, "EPHEMERIS_TYPE": 0, "CLASSIFICATION_TYPE": "U", "NORAD_CAT_ID": 66425, "ELEMENT_SET_NO": 999, "REV_AT_EPOCH": 507, "BSTAR": -0.044905934, "MEAN_MOTION_DOT": -0.01861554, "MEAN_MOTION_DDOT": 0}, "tle": {"line1": "1 66425U 25259D   25339.25002315 -.01861554  00000+0 -44906-1 0  9991", "line2": "2 66425  43.0007  91.1783 0001282 272.0072 234.2962 15.43653722  5079"}}, "geometry": {"type": "Point", "coordinates": [127.66692484619202, 31.18439480555266]}}, {"type": "Feature", "properties": {"norad_id": 66426, "name": "STARLINK-35589", "group": "last-30-days", "lat": 36.62984464092659, "lon": 140.06220620172527, "alt_km": 435.2865170850864, "timestamp": "2025-12-05T22:40:47.340860+00:00", "meta": {"OBJECT_NAME": "STARLINK-35589", "OBJECT_ID": "2025-259E", "EPOCH": "2025-12-05T06:00:02.000160", "MEAN_MOTION": 15.45035979, "ECCENTRICITY": 0.0001229, "INCLINATION": 43.0005, "RA_OF_ASC_NODE": 91.1612, "ARG_OF_PERICENTER": 279.2213, "MEAN_ANOMALY": 235.5933, "EPHEMERIS_TYPE": 0, "CLASSIFICATION_TYPE": "U", "NORAD_CAT_ID": 66426, "ELEMENT_SET_NO": 999, "REV_AT_EPOCH": 507, "BSTAR": -0.047271658, "MEAN_MOTION_DOT": -0.020337, "MEAN_MOTION_DDOT": 0}, "tle": {"line1": "1 66426U 25259E   25339.25002315 -.02033700  00000+0 -47272-1 0  9996", "line2": "2 66426  43.0005  91.1612 0001229 279.2213 235.5933 15.45035979  5078"}}, "geometry": {"type": "Point", "coordinates": [140.06220620172527, 36.62984464092659]}}]}